start=new Date('2023-06-22T00:00:00.000Z').valueOf();
sats=[{"REV_AT_EPOCH":"12709","INCLINATION":"53.0552","MEAN_ELEMENT_THEORY":"SGP4","EPHEMERIS_TYPE":"0","BSTAR":"0.00053235000000","EPOCH":"2023-06-20T22:54:15.125472","MEAN_ANOMALY":"250.7994","CLASSIFICATION_TYPE":"U","ELEMENT_SET_NO":"999","SEMIMAJOR_AXIS":"6925.348","OBJECT_TYPE":"PAYLOAD","OBJECT_NAME":"STARLINK-2389","OBJECT_ID":"2021-018X","MEAN_MOTION_DOT":"0.00007657","MEAN_MOTION_DDOT":"0.0000000000000","TLE_LINE2":"2 47808  53.0552  23.1791 0001079 109.3111 250.7994 15.06400262127096","LAUNCH_DATE":"2021-03-11","GP_ID":"234432877","ECCENTRICITY":"0.00010790","FILE":"3939133","MEAN_MOTION":"15.06400262","CENTER_NAME":"EARTH","DECAY_DATE":null,"COUNTRY_CODE":"US","PERIAPSIS":"546.466","TIME_SYSTEM":"UTC","SITE":"AFETR","REF_FRAME":"TEME","TLE_LINE1":"1 47808U 21018X   23171.95434173  .00007657  00000-0  53235-3 0  9995","RA_OF_ASC_NODE":"23.1791","RCS_SIZE":"LARGE","PERIOD":"95.592","ARG_OF_PERICENTER":"109.3111","NORAD_CAT_ID":"47808","APOAPSIS":"547.960"},{"APOAPSIS":"548.020","TLE_LINE1":"1 47809U 21018Y   23172.82097081  .00017082  00000-0  11622-2 0  9992","REF_FRAME":"TEME","SITE":"AFETR","RA_OF_ASC_NODE":"24.2794","RCS_SIZE":"LARGE","PERIOD":"95.591","ARG_OF_PERICENTER":"107.1884","NORAD_CAT_ID":"47809","TIME_SYSTEM":"UTC","ECCENTRICITY":"0.00012600","FILE":"3939265","GP_ID":"234441704","MEAN_MOTION":"15.06421670","DECAY_DATE":null,"CENTER_NAME":"EARTH","COUNTRY_CODE":"US","PERIAPSIS":"546.275","MEAN_MOTION_DDOT":"0.0000000000000","MEAN_MOTION_DOT":"0.00017082","TLE_LINE2":"2 47809  53.0547  24.2794 0001260 107.1884 252.9243 15.06421670126750","LAUNCH_DATE":"2021-03-11","SEMIMAJOR_AXIS":"6925.282","OBJECT_TYPE":"PAYLOAD","OBJECT_ID":"2021-018Y","OBJECT_NAME":"STARLINK-2390","EPOCH":"2023-06-21T19:42:11.877984","ELEMENT_SET_NO":"999","MEAN_ANOMALY":"252.9243","CLASSIFICATION_TYPE":"U","INCLINATION":"53.0547","REV_AT_EPOCH":"12675","MEAN_ELEMENT_THEORY":"SGP4","EPHEMERIS_TYPE":"0","BSTAR":"0.00116220000000"},{"CLASSIFICATION_TYPE":"U","MEAN_ANOMALY":"296.4411","ELEMENT_SET_NO":"999","EPOCH":"2023-06-20T22:01:50.741760","BSTAR":"0.00137660000000","EPHEMERIS_TYPE":"0","MEAN_ELEMENT_THEORY":"SGP4","INCLINATION":"53.0539","REV_AT_EPOCH":"12687","LAUNCH_DATE":"2021-03-11","TLE_LINE2":"2 47810  53.0539  38.3479 0001059  63.6687 296.4411 15.06389856126874","MEAN_MOTION_DDOT":"0.0000000000000","MEAN_MOTION_DOT":"0.00020277","OBJECT_NAME":"STARLINK-2391","OBJECT_ID":"2021-018Z","OBJECT_TYPE":"PAYLOAD","SEMIMAJOR_AXIS":"6925.380","TIME_SYSTEM":"UTC","COUNTRY_CODE":"US","PERIAPSIS":"546.511","CENTER_NAME":"EARTH","DECAY_DATE":null,"MEAN_MOTION":"15.06389856","GP_ID":"234433879","ECCENTRICITY":"0.00010590","FILE":"3939133","APOAPSIS":"547.978","NORAD_CAT_ID":"47810","RCS_SIZE":"LARGE","PERIOD":"95.593","ARG_OF_PERICENTER":"63.6687","RA_OF_ASC_NODE":"38.3479","REF_FRAME":"TEME","SITE":"AFETR","TLE_LINE1":"1 47810U 21018Z   23171.91794840  .00020277  00000-0  13766-2 0  9991"},{"TLE_LINE2":"2 47811  53.0552   4.5878 0001194  85.4850 274.6276 15.06481606127023","LAUNCH_DATE":"2021-03-11","MEAN_MOTION_DDOT":"0.0000000000000","MEAN_MOTION_DOT":"0.00021385","OBJECT_ID":"2021-018AA","OBJECT_NAME":"STARLINK-2392","SEMIMAJOR_AXIS":"6925.098","OBJECT_TYPE":"PAYLOAD","EPOCH":"2023-06-21T18:05:19.273920","ELEMENT_SET_NO":"999","MEAN_ANOMALY":"274.6276","CLASSIFICATION_TYPE":"U","BSTAR":"0.00144700000000","EPHEMERIS_TYPE":"0","REV_AT_EPOCH":"12702","INCLINATION":"53.0552","MEAN_ELEMENT_THEORY":"SGP4","APOAPSIS":"547.790","RCS_SIZE":"LARGE","ARG_OF_PERICENTER":"85.4850","PERIOD":"95.587","NORAD_CAT_ID":"47811","TLE_LINE1":"1 47811U 21018AA  23172.75369530  .00021385  00000-0  14470-2 0  9993","SITE":"AFETR","REF_FRAME":"TEME","RA_OF_ASC_NODE":"4.5878","TIME_SYSTEM":"UTC","DECAY_DATE":null,"CENTER_NAME":"EARTH","COUNTRY_CODE":"US","PERIAPSIS":"546.137","FILE":"3939255","ECCENTRICITY":"0.00011940","GP_ID":"234442001","MEAN_MOTION":"15.06481606"},{"APOAPSIS":"547.912","REF_FRAME":"TEME","SITE":"AFETR","TLE_LINE1":"1 47812U 21018AB  23172.72515648  .00021124  00000-0  14320-2 0  9999","RA_OF_ASC_NODE":"34.7206","ARG_OF_PERICENTER":"116.3176","RCS_SIZE":"LARGE","PERIOD":"95.591","NORAD_CAT_ID":"47812","TIME_SYSTEM":"UTC","GP_ID":"234440621","ECCENTRICITY":"0.00010970","FILE":"3939217","MEAN_MOTION":"15.06420064","CENTER_NAME":"EARTH","DECAY_DATE":null,"PERIAPSIS":"546.392","COUNTRY_CODE":"US","MEAN_MOTION_DOT":"0.00021124","MEAN_MOTION_DDOT":"0.0000000000000","TLE_LINE2":"2 47812  53.0539  34.7206 0001097 116.3176 243.7925 15.06420064126596","LAUNCH_DATE":"2021-03-11","SEMIMAJOR_AXIS":"6925.287","OBJECT_TYPE":"PAYLOAD","OBJECT_NAME":"STARLINK-2393","OBJECT_ID":"2021-018AB","EPOCH":"2023-06-21T17:24:13.519872","CLASSIFICATION_TYPE":"U","MEAN_ANOMALY":"243.7925","ELEMENT_SET_NO":"999","INCLINATION":"53.0539","REV_AT_EPOCH":"12659","MEAN_ELEMENT_THEORY":"SGP4","BSTAR":"0.00143200000000","EPHEMERIS_TYPE":"0"},{"RCS_SIZE":"LARGE","ARG_OF_PERICENTER":"109.6714","PERIOD":"95.590","NORAD_CAT_ID":"47813","TLE_LINE1":"1 47813U 21018AC  23172.77583907  .00021855  00000-0  14804-2 0  9996","SITE":"AFETR","REF_FRAME":"TEME","RA_OF_ASC_NODE":"4.4913","APOAPSIS":"547.794","DECAY_DATE":null,"CENTER_NAME":"EARTH","COUNTRY_CODE":"US","PERIAPSIS":"546.452","ECCENTRICITY":"0.00009690","FILE":"3939217","GP_ID":"234440630","MEAN_MOTION":"15.06429410","TIME_SYSTEM":"UTC","OBJECT_ID":"2021-018AC","OBJECT_NAME":"STARLINK-2394","SEMIMAJOR_AXIS":"6925.258","OBJECT_TYPE":"PAYLOAD","TLE_LINE2":"2 47813  53.0550   4.4913 0000969 109.6714 250.4380 15.06429410127022","LAUNCH_DATE":"2021-03-11","MEAN_MOTION_DOT":"0.00021855","MEAN_MOTION_DDOT":"0.0000000000000","EPHEMERIS_TYPE":"0","BSTAR":"0.00148040000000","REV_AT_EPOCH":"12702","INCLINATION":"53.0550","MEAN_ELEMENT_THEORY":"SGP4","EPOCH":"2023-06-21T18:37:12.495648","ELEMENT_SET_NO":"999","CLASSIFICATION_TYPE":"U","MEAN_ANOMALY":"250.4380"},{"SEMIMAJOR_AXIS":"6925.256","OBJECT_TYPE":"PAYLOAD","OBJECT_NAME":"STARLINK-2395","OBJECT_ID":"2021-018AD","MEAN_MOTION_DOT":"0.00024147","MEAN_MOTION_DDOT":"0.0000000000000","TLE_LINE2":"2 47814  53.0541  24.6861 0001069 101.6064 258.5045 15.06430169126750","LAUNCH_DATE":"2021-03-11","INCLINATION":"53.0541","REV_AT_EPOCH":"12675","MEAN_ELEMENT_THEORY":"SGP4","EPHEMERIS_TYPE":"0","BSTAR":"0.00163310000000","EPOCH":"2023-06-21T17:36:10.411776","CLASSIFICATION_TYPE":"U","MEAN_ANOMALY":"258.5045","ELEMENT_SET_NO":"999","REF_FRAME":"TEME","SITE":"AFETR","TLE_LINE1":"1 47814U 21018AD  23172.73345384  .00024147  00000-0  16331-2 0  9992","RA_OF_ASC_NODE":"24.6861","ARG_OF_PERICENTER":"101.6064","RCS_SIZE":"LARGE","PERIOD":"95.590","NORAD_CAT_ID":"47814","APOAPSIS":"547.861","GP_ID":"234439655","FILE":"3939187","ECCENTRICITY":"0.00010690","MEAN_MOTION":"15.06430169","CENTER_NAME":"EARTH","DECAY_DATE":null,"COUNTRY_CODE":"US","PERIAPSIS":"546.381","TIME_SYSTEM":"UTC"},{"TIME_SYSTEM":"UTC","ECCENTRICITY":"0.00011580","FILE":"3939249","GP_ID":"234441516","MEAN_MOTION":"15.06421362","DECAY_DATE":null,"CENTER_NAME":"EARTH","COUNTRY_CODE":"US","PERIAPSIS":"546.346","APOAPSIS":"547.950","TLE_LINE1":"1 47815U 21018AE  23172.76524591  .00018359  00000-0  12475-2 0  9998","SITE":"AFETR","REF_FRAME":"TEME","RA_OF_ASC_NODE":"19.5414","PERIOD":"95.591","RCS_SIZE":"LARGE","ARG_OF_PERICENTER":"100.7092","NORAD_CAT_ID":"47815","EPOCH":"2023-06-21T18:21:57.246624","ELEMENT_SET_NO":"999","CLASSIFICATION_TYPE":"U","MEAN_ANOMALY":"259.4027","INCLINATION":"53.0546","REV_AT_EPOCH":"12682","MEAN_ELEMENT_THEORY":"SGP4","BSTAR":"0.00124750000000","EPHEMERIS_TYPE":"0","MEAN_MOTION_DOT":"0.00018359","MEAN_MOTION_DDOT":"0.0000000000000","TLE_LINE2":"2 47815  53.0546  19.5414 0001158 100.7092 259.4027 15.06421362126826","LAUNCH_DATE":"2021-03-11","SEMIMAJOR_AXIS":"6925.283","OBJECT_TYPE":"PAYLOAD","OBJECT_ID":"2021-018AE","OBJECT_NAME":"STARLINK-2396"},{"APOAPSIS":"548.017","RCS_SIZE":"LARGE","PERIOD":"95.593","ARG_OF_PERICENTER":"68.6376","NORAD_CAT_ID":"47816","TLE_LINE1":"1 47816U 21018AF  23171.97783945  .00020325  00000-0  13801-2 0  9991","SITE":"AFETR","REF_FRAME":"TEME","RA_OF_ASC_NODE":"28.0766","TIME_SYSTEM":"UTC","DECAY_DATE":null,"CENTER_NAME":"EARTH","COUNTRY_CODE":"US","PERIAPSIS":"546.516","FILE":"3939133","ECCENTRICITY":"0.00010840","GP_ID":"234432878","MEAN_MOTION":"15.06382805","TLE_LINE2":"2 47816  53.0546  28.0766 0001084  68.6376 291.4728 15.06382805126964","LAUNCH_DATE":"2021-03-11","MEAN_MOTION_DOT":"0.00020325","MEAN_MOTION_DDOT":"0.0000000000000","OBJECT_ID":"2021-018AF","OBJECT_NAME":"STARLINK-2399","SEMIMAJOR_AXIS":"6925.401","OBJECT_TYPE":"PAYLOAD","EPOCH":"2023-06-20T23:28:05.328480","ELEMENT_SET_NO":"999","MEAN_ANOMALY":"291.4728","CLASSIFICATION_TYPE":"U","EPHEMERIS_TYPE":"0","BSTAR":"0.00138010000000","REV_AT_EPOCH":"12696","INCLINATION":"53.0546","MEAN_ELEMENT_THEORY":"SGP4"},{"ELEMENT_SET_NO":"999","MEAN_ANOMALY":"292.5618","CLASSIFICATION_TYPE":"U","EPOCH":"2023-06-20T23:54:38.620512","BSTAR":"0.00163000000000","EPHEMERIS_TYPE":"0","MEAN_ELEMENT_THEORY":"SGP4","REV_AT_EPOCH":"12696","INCLINATION":"53.0542","LAUNCH_DATE":"2021-03-11","TLE_LINE2":"2 47817  53.0542  27.9913 0001274  67.5506 292.5618 15.06393560126967","MEAN_MOTION_DDOT":"0.0000000000000","MEAN_MOTION_DOT":"0.00024076","OBJECT_ID":"2021-018AG","OBJECT_NAME":"STARLINK-2400","OBJECT_TYPE":"PAYLOAD","SEMIMAJOR_AXIS":"6925.368","TIME_SYSTEM":"UTC","COUNTRY_CODE":"US","PERIAPSIS":"546.351","DECAY_DATE":null,"CENTER_NAME":"EARTH","MEAN_MOTION":"15.06393560","FILE":"3939133","ECCENTRICITY":"0.00012740","GP_ID":"234432629","APOAPSIS":"548.116","NORAD_CAT_ID":"47817","PERIOD":"95.593","RCS_SIZE":"LARGE","ARG_OF_PERICENTER":"67.5506","RA_OF_ASC_NODE":"27.9913","TLE_LINE1":"1 47817U 21018AG  23171.99628033  .00024076  00000-0  16300-2 0  9994","SITE":"AFETR","REF_FRAME":"TEME"}];
